0 METEOR 1-24
1 08799U 76032A   13282.03626120  .00000288  00000-0  15150-3 0  5581
2 08799 081.2575 063.6141 0035218 048.0815 092.4095 14.11294339930490
0 METEOR 1-24
1 08799U 76032A   13283.43081817  .00000225  00000-0  11661-3 0  5599
2 08799 081.2578 062.2557 0035150 044.1813 337.6208 14.11295420930693
0 METEOR 1-24
1 08799U 76032A   13285.93529997  .00000132  00000-0  65483-4 0  5614
2 08799 081.2586 059.8164 0035038 037.0498 102.0763 14.11296959931041
0 METEOR 1-24
1 08799U 76032A   13286.99827366  .00000120  00000-0  58784-4 0  5626
2 08799 081.2589 058.7812 0034990 033.9936 102.7336 14.11297503931195
0 METEOR 1-24
1 08799U 76032A   13288.46858574  .00000132  00000-0  65542-4 0  5639
2 08799 081.2592 057.3495 0034906 029.6832 013.0442 14.11298321931400
0 METEOR 1-24
1 08799U 76032A   13289.82941434  .00000101  00000-0  48841-4 0  5648
2 08799 081.2593 056.0245 0034824 025.6487 087.1436 14.11298774931598
0 METEOR 1-24
1 08799U 76032A   13290.89355419  .00000095  00000-0  45388-4 0  5655
2 08799 081.2593 054.9883 0034767 022.5464 093.7761 14.11299163931744
0 METEOR 1-24
1 08799U 76032A   13291.96111038  .00000093  00000-0  44009-4 0  5669
2 08799 081.2593 053.9489 0034718 019.4156 117.7862 14.11299463931892
0 METEOR 1-24
1 08799U 76032A   13293.43543122  .00000073  00000-0  33438-4 0  5679
2 08799 081.2593 052.5134 0034651 015.1521 048.4156 14.11300003932103
0 METEOR 1-24
1 08799U 76032A   13294.49561167  .00000047  00000-0  19156-4 0  5688
2 08799 081.2593 051.4811 0034596 012.0422 034.9542 14.11300346932252
0 METEOR 1-24
1 08799U 76032A   13295.85641332  .00000021  00000-0  47159-5 0  5690
2 08799 081.2593 050.1560 0034537 007.9431 108.9898 14.11300554932445
